Numero,Wiki Friendly Name,Sestiere,lat,long,street view html,Affordability,Affordability (Scaled),Well-Served, Well-Served (Scaled),Touristy,Touristy (Scaled),Congestion,Congestion (Scaled),Accessibility,Reachability,Reachability (Scaled),Green Space,Green Space (Scaled)
#,Island of _____,,,,,,,,,,,,,,,,,
1,Island of Sant'Alvise,Cannaregio,45.448163,12.327812,"<iframe src=""https://www.google.com/maps/embed?pb=!4v1750252329757!6m8!1m7!1sdJvg2AR19Hza47yrX_hoGg!2m2!1d45.44793226890473!2d12.32835422767917!3f114.94904765231281!4f2.6240636575926715!5f0.7820865974627469"" width=""600"" height=""450"" style=""border:0;"" allowfullscreen="""" loading=""lazy"" referrerpolicy=""no-referrer-when-downgrade""></iframe>",3800000,6.385004154,0,0,0.2662116041,9.619697708,0.005637612448,9.671045874,0,1.5,0.5,0.4078698956,4.371087768
2,Island of Madonna dell'Orto,Cannaregio,45.446664,12.332765,"<iframe src=""https://www.google.com/maps/embed?pb=!4v1750252589256!6m8!1m7!1sCAoSF0NJSE0wb2dLRUlDQWdJREVuS2VuemdF!2m2!1d45.44670280704172!2d12.33275715965958!3f206.94920033535817!4f0.8639183132722934!5f0.7820865974627469"" width=""600"" height=""450"" style=""border:0;"" allowfullscreen="""" loading=""lazy"" referrerpolicy=""no-referrer-when-downgrade""></iframe>",9948333.333,0,0,0,0.03273809524,9.953231293,0.005569823435,9.675001356,0,3.65,1.216666667,0.245523764,2.63124573
3,Island of Sensa,Cannaregio,45.447174,12.327027,"<iframe src=""https://www.google.com/maps/embed?pb=!4v1750252622919!6m8!1m7!1sCAoSFkNJSE0wb2dLRUlDQWdJREUxb0xFTFE.!2m2!1d45.44731014390221!2d12.32669702213889!3f18.087769310154968!4f-1.947219401961192!5f0.7820865974627469"" width=""600"" height=""450"" style=""border:0;"" allowfullscreen="""" loading=""lazy"" referrerpolicy=""no-referrer-when-downgrade""></iframe>",4910000,5.232276378,0,0,0.3824130879,9.453695589,0.02059970746,8.798009117,0,0,0,0.1571338703,1.683982921
4,Island of Brazzo,Cannaregio,45.446091,12.330738,"<iframe src=""https://www.google.com/maps/embed?pb=!4v1750252671362!6m8!1m7!1syECKDtffQw6VvN9vPJjDyA!2m2!1d45.44604801238261!2d12.33088335058224!3f34.875125026786414!4f-3.4350635350950256!5f0.7820865974627469"" width=""600"" height=""450"" style=""border:0;"" allowfullscreen="""" loading=""lazy"" referrerpolicy=""no-referrer-when-downgrade""></iframe>",7350000,2.698352257,0,0,0.3732394366,9.466800805,0.01598753792,9.067128752,0,0,0,0.1425409521,1.527592546
5,Island of Mori,Cannaregio,45.445401,12.332802,"<iframe src=""https://www.google.com/maps/embed?pb=!4v1750252688269!6m8!1m7!1s6PvFKrz8vdKa1QL-3KssqQ!2m2!1d45.44540268990832!2d12.33279600190568!3f134.62615357916198!4f-1.6818678840937054!5f0.7820865974627469"" width=""600"" height=""450"" style=""border:0;"" allowfullscreen="""" loading=""lazy"" referrerpolicy=""no-referrer-when-downgrade""></iframe>",4460000,5.699598449,0,0,1.874371859,7.322325915,0.04699435404,7.257884113,0,0,0,0.08175258546,0.876131654
6,Island of S. Maria di Valverde Maggiore,Cannaregio,45.444425,12.334682,"<iframe src=""https://www.google.com/maps/embed?pb=!4v1750252714722!6m8!1m7!1sCAoSF0NJSE0wb2dLRUlDQWdJQzRzcUtSa1FF!2m2!1d45.44460993336455!2d12.33463008747226!3f186.6465937311139!4f5.605052549408001!5f0.7820865974627469"" width=""600"" height=""450"" style=""border:0;"" allowfullscreen="""" loading=""lazy"" referrerpolicy=""no-referrer-when-downgrade""></iframe>",3911250,6.269471753,0,0,0.3372093023,9.518272425,0.007156092262,9.582442728,0,0,0,0.3376007427,3.618022543
7,Island of San Girolamo,Cannaregio,45.447185,12.324054,"<iframe src=""https://www.google.com/maps/embed?pb=!4v1750252736029!6m8!1m7!1sDTyFgQy-WNBOwdZO2oXErg!2m2!1d45.44720338269435!2d12.32404075659145!3f193.62929925607315!4f-4.1086177437825455!5f0.7820865974627469"" width=""600"" height=""450"" style=""border:0;"" allowfullscreen="""" loading=""lazy"" referrerpolicy=""no-referrer-when-downgrade""></iframe>",0,10,1.5,0.03311258278,0.2050078247,9.707131679,0.01732790242,8.988918616,0,0,0,0.09220163415,0.9881127279
8,Island of Ormesini,Cannaregio,45.445912,12.328324,"<iframe src=""https://www.google.com/maps/embed?pb=!4v1750252755824!6m8!1m7!1sFeD08SeclarNIhuZFsv0oA!2m2!1d45.44592247361193!2d12.32830186436878!3f188.19299484731016!4f-0.24146782072729422!5f0.7820865974627469"" width=""600"" height=""450"" style=""border:0;"" allowfullscreen="""" loading=""lazy"" referrerpolicy=""no-referrer-when-downgrade""></iframe>",4067500,6.107207145,111,2.450331126,0.6952861953,9.006734007,0.04319663693,7.479480529,0,0,0,0.0745385206,0.7988194743
9,Island of Misericordia,Cannaregio,45.444534,12.332504,"<iframe src=""https://www.google.com/maps/embed?pb=!4v1750252791386!6m8!1m7!1sqkOHcH7fVAE2495mD7ezVg!2m2!1d45.44457618117524!2d12.33248953260826!3f35.466369863950646!4f-3.267235260268208!5f0.7820865974627469"" width=""600"" height=""450"" style=""border:0;"" allowfullscreen="""" loading=""lazy"" referrerpolicy=""no-referrer-when-downgrade""></iframe>",6076000,4.021392966,15,0.3311258278,1.284931507,8.164383562,0.02428533616,8.582953049,0,0,0,0.07096384479,0.7605101461
10,Island of Chiovere San Girolamo,Cannaregio,45.44619,12.323742,"<iframe src=""https://www.google.com/maps/embed?pb=!4v1750252821646!6m8!1m7!1sPsBsgS_VM0P14FWxdtf8qw!2m2!1d45.44625579067005!2d12.32373263557618!3f109.48441133723159!4f-2.3852338889093403!5f0.7820865974627469"" width=""600"" height=""450"" style=""border:0;"" allowfullscreen="""" loading=""lazy"" referrerpolicy=""no-referrer-when-downgrade""></iframe>",2636500,7.593291332,0,0,0.1474926254,9.789296249,0.01279563172,9.253376161,0,0,0,0.1486301708,1.592849898
11,Island of Ghetto,Cannaregio,45.445353,12.326893,"<iframe src=""https://www.google.com/maps/embed?pb=!4v1750252863510!6m8!1m7!1sCAoSF0NJSE0wb2dLRUlDQWdJRHFyYUxfcFFF!2m2!1d45.4453500047603!2d12.32689303648616!3f297.1319011842097!4f1.6271439181168859!5f0.7820865974627469"" width=""600"" height=""450"" style=""border:0;"" allowfullscreen="""" loading=""lazy"" referrerpolicy=""no-referrer-when-downgrade""></iframe>",3651250,6.539480061,5,0.1103752759,0.4943820225,9.293739968,0.01979891725,8.844735147,0,0,0,0.1234978696,1.323510347
12,Island of Servi,Cannaregio,45.444259,12.33118,"<iframe src=""https://www.google.com/maps/embed?pb=!4v1750252969801!6m8!1m7!1svejsnaKXSGb2nOLxGf4U4g!2m2!1d45.4439705282327!2d12.33203188658153!3f78.19251276257216!4f0.12028560328356264!5f0.7820865974627469"" width=""600"" height=""450"" style=""border:0;"" allowfullscreen="""" loading=""lazy"" referrerpolicy=""no-referrer-when-downgrade""></iframe>",4725000,5.424397674,100,2.207505519,0,10,0.01304380608,9.238895212,0,0,0,0.4451856532,4.77099581
13,Island of San Marziale,Cannaregio,45.443598,12.333141,"<iframe src=""https://www.google.com/maps/embed?pb=!4v1750252984371!6m8!1m7!1s7XJ2r6KzdHiX-Ky9gczqkw!2m2!1d45.44354435987334!2d12.33300991151862!3f139.55225049857236!4f1.5244257407758823!5f0.7820865974627469"" width=""600"" height=""450"" style=""border:0;"" allowfullscreen="""" loading=""lazy"" referrerpolicy=""no-referrer-when-downgrade""></iframe>",4569375,5.586013223,0,0,1.132352941,8.382352941,0.02261384903,8.680484157,0,0,0,0.08741314811,0.9367951558
14,Island of Ca'Vendramin,Cannaregio,45.443261,12.33277,"<iframe src=""https://www.google.com/maps/embed?pb=!4v1750253002793!6m8!1m7!1s3hZ67ItsNT5NuUHUvrXDbw!2m2!1d45.4431610600898!2d12.33256542910511!3f136.14495369719262!4f-0.9009190788380153!5f0.7820865974627469"" width=""600"" height=""450"" style=""border:0;"" allowfullscreen="""" loading=""lazy"" referrerpolicy=""no-referrer-when-downgrade""></iframe>",3966666.667,6.211921905,0,0,2.93814433,5.802650957,0.04946628482,7.113647198,0,0,0,0.07774721744,0.8332066543
15,Island of San Leonardo,Cannaregio,45.44494,12.325107,"<iframe src=""https://www.google.com/maps/embed?pb=!4v1750253046693!6m8!1m7!1sKpXdiEIYeK1hxeESc_yBIA!2m2!1d45.44487356059679!2d12.32577418577915!3f280.3805102444394!4f-0.9499061185221223!5f0.7820865974627469"" width=""600"" height=""450"" style=""border:0;"" allowfullscreen="""" loading=""lazy"" referrerpolicy=""no-referrer-when-downgrade""></iframe>",4630000,5.523054556,339,7.483443709,0.928678118,8.673316974,0.02842563858,8.341366815,0,13.89285714,4.630952381,0.1153478665,1.236167841
16,Island of Maddalena,Cannaregio,45.443004,12.330536,"<iframe src=""https://www.google.com/maps/embed?pb=!4v1750253066163!6m8!1m7!1sWXny0hCKxirFqe-wB6efyw!2m2!1d45.44315422791433!2d12.33117072655143!3f256.1586366315231!4f0!5f0.7820865974627469"" width=""600"" height=""450"" style=""border:0;"" allowfullscreen="""" loading=""lazy"" referrerpolicy=""no-referrer-when-downgrade""></iframe>",4145000,6.026723899,0.5,0.01103752759,1.488888889,7.873015873,0.02795487984,8.36883554,0,0,0,0.07831606079,0.8393028733
17,Island of Santa Fosca,Cannaregio,45.442533,12.332195,"<iframe src=""https://www.google.com/maps/embed?pb=!4v1750253116698!6m8!1m7!1srvqrr1I0YWe2EFO5jx4_nA!2m2!1d45.44255035318237!2d12.33241029109789!3f332.593951862722!4f-3.3004864674786347!5f0.7820865974627469"" width=""600"" height=""450"" style=""border:0;"" allowfullscreen="""" loading=""lazy"" referrerpolicy=""no-referrer-when-downgrade""></iframe>",4270833.333,5.896046801,110,2.428256071,1.489208633,7.872559096,0.02375494895,8.61390109,0,0,0,0.01281739158,0.1373622916
18,Island of San Felice,Cannaregio,45.44213,12.333492,"<iframe src=""https://www.google.com/maps/embed?pb=!4v1750253139659!6m8!1m7!1sCAoSFENJSE0wb2dLRUlDQWdJQ093YThj!2m2!1d45.44209151888576!2d12.33347382597158!3f175.36329737294255!4f-9.81636401432381!5f0.7820865974627469"" width=""600"" height=""450"" style=""border:0;"" allowfullscreen="""" loading=""lazy"" referrerpolicy=""no-referrer-when-downgrade""></iframe>",2860000,7.361188037,10,0.2207505519,1.744047619,7.508503401,0.03357909336,8.04066324,0,0,0,0.08097030081,0.8677480128
19,Island of Macello,Cannaregio,45.445321,12.318345,"<iframe src=""https://www.google.com/maps/embed?pb=!4v1750253167119!6m8!1m7!1s2KwtZ9e8hSqJnotj0cC0vQ!2m2!1d45.44524494381543!2d12.31845871503717!3f38.60569057752923!4f-2.722482926448251!5f0.7820865974627469"" width=""600"" height=""450"" style=""border:0;"" allowfullscreen="""" loading=""lazy"" referrerpolicy=""no-referrer-when-downgrade""></iframe>",2957500,7.259934921,100,2.207505519,0.3218390805,9.540229885,0.008819694762,9.485371687,3.333333333,3.183333333,1.061111111,0.2242215464,2.40295268
20,Island of San Geremia,Cannaregio,45.442433,12.32075,"<iframe src=""https://www.google.com/maps/embed?pb=!4v1750253217872!6m8!1m7!1sH8i3nhuLZ2kmQv-yyUgmvQ!2m2!1d45.44255157868555!2d12.32102953868646!3f45.158489315080956!4f-0.9877157406747727!5f0.7820865974627469"" width=""600"" height=""450"" style=""border:0;"" allowfullscreen="""" loading=""lazy"" referrerpolicy=""no-referrer-when-downgrade""></iframe>",4646250,5.506179036,41,0.9050772627,1.637002342,7.661425226,0.008352175347,9.512651399,3.333333333,13.74507042,4.581690141,0.1344138237,1.440495185
21,Island of San Zan Degolà,San Croce,45.440638,12.325764,"<iframe src=""https://www.google.com/maps/embed?pb=!4v1750253217872!6m8!1m7!1sH8i3nhuLZ2kmQv-yyUgmvQ!2m2!1d45.44255157868555!2d12.32102953868646!3f45.158489315080956!4f-0.9877157406747727!5f0.7820865974627469"" width=""600"" height=""450"" style=""border:0;"" allowfullscreen="""" loading=""lazy"" referrerpolicy=""no-referrer-when-downgrade""></iframe>",5444000,4.677720853,120,2.649006623,0.7775489186,8.889215831,0.02202910267,8.714604049,0,8.6,2.866666667,0.1632810373,1.749861297
22,Island of San Giacomo da l'Orio,San Croce,45.440693,12.32791,"<iframe src=""https://www.google.com/maps/embed?pb=!4v1750253217872!6m8!1m7!1sH8i3nhuLZ2kmQv-yyUgmvQ!2m2!1d45.44255157868555!2d12.32102953868646!3f45.158489315080956!4f-0.9877157406747727!5f0.7820865974627469"" width=""600"" height=""450"" style=""border:0;"" allowfullscreen="""" loading=""lazy"" referrerpolicy=""no-referrer-when-downgrade""></iframe>",4302500,5.863161174,10,0.2207505519,0.3805309735,9.456384324,0.01726253556,8.992732766,0,0,0,0.1357913512,1.455257965
23,Island of Megio,San Croce,45.441402,12.329047,"<iframe src=""https://www.google.com/maps/embed?pb=!4v1750253217872!6m8!1m7!1sH8i3nhuLZ2kmQv-yyUgmvQ!2m2!1d45.44255157868555!2d12.32102953868646!3f45.158489315080956!4f-0.9877157406747727!5f0.7820865974627469"" width=""600"" height=""450"" style=""border:0;"" allowfullscreen="""" loading=""lazy"" referrerpolicy=""no-referrer-when-downgrade""></iframe>",6567291.667,3.511189767,0.5,0.01103752759,0.253164557,9.638336347,0.01388499299,9.189812039,0,0,0,0.2834831476,3.038051428
24,Island of San Stae,San Croce,45.440886,12.329731,"<iframe src=""https://www.google.com/maps/embed?pb=!4v1750253217872!6m8!1m7!1sH8i3nhuLZ2kmQv-yyUgmvQ!2m2!1d45.44255157868555!2d12.32102953868646!3f45.158489315080956!4f-0.9877157406747727!5f0.7820865974627469"" width=""600"" height=""450"" style=""border:0;"" allowfullscreen="""" loading=""lazy"" referrerpolicy=""no-referrer-when-downgrade""></iframe>",6392500,3.692709776,100,2.207505519,1.171348315,8.326645265,0.02637911884,8.460781038,0,3.4,1.133333333,0.1333526065,1.42912226
25,Island of Ca'Mocenigo,San Croce,45.440454,12.330302,"<iframe src=""https://www.google.com/maps/embed?pb=!4v1750253217872!6m8!1m7!1sH8i3nhuLZ2kmQv-yyUgmvQ!2m2!1d45.44255157868555!2d12.32102953868646!3f45.158489315080956!4f-0.9877157406747727!5f0.7820865974627469"" width=""600"" height=""450"" style=""border:0;"" allowfullscreen="""" loading=""lazy"" referrerpolicy=""no-referrer-when-downgrade""></iframe>",6026250,4.073058017,0,0,1.223744292,8.251793868,0.03031583395,8.231074103,0,0,0,0.1228740517,1.316824973
26,Island of S.M. Mater Domini,San Croce,45.439975,12.330539,"<iframe src=""https://www.google.com/maps/embed?pb=!4v1750253217872!6m8!1m7!1sH8i3nhuLZ2kmQv-yyUgmvQ!2m2!1d45.44255157868555!2d12.32102953868646!3f45.158489315080956!4f-0.9877157406747727!5f0.7820865974627469"" width=""600"" height=""450"" style=""border:0;"" allowfullscreen="""" loading=""lazy"" referrerpolicy=""no-referrer-when-downgrade""></iframe>",5441250,4.68057671,10,0.2207505519,0.9895470383,8.586361374,0.02686915888,8.43218725,0,0,0,0.05047171816,0.5408987332
27,Island of Do Torri,San Croce,45.439727,12.331257,"<iframe src=""https://www.google.com/maps/embed?pb=!4v1750253217872!6m8!1m7!1sH8i3nhuLZ2kmQv-yyUgmvQ!2m2!1d45.44255157868555!2d12.32102953868646!3f45.158489315080956!4f-0.9877157406747727!5f0.7820865974627469"" width=""600"" height=""450"" style=""border:0;"" allowfullscreen="""" loading=""lazy"" referrerpolicy=""no-referrer-when-downgrade""></iframe>",6930000,3.134519524,5,0.1103752759,1.305993691,8.134294727,0.02241173106,8.692277721,0,0,0,0.1007836159,1.080084692
28,Island of San Cassian,San Polo,45.43921,12.332107,"<iframe src=""https://www.google.com/maps/embed?pb=!4v1750253217872!6m8!1m7!1sH8i3nhuLZ2kmQv-yyUgmvQ!2m2!1d45.44255157868555!2d12.32102953868646!3f45.158489315080956!4f-0.9877157406747727!5f0.7820865974627469"" width=""600"" height=""450"" style=""border:0;"" allowfullscreen="""" loading=""lazy"" referrerpolicy=""no-referrer-when-downgrade""></iframe>",6076666.667,4.020700637,25.5,0.5629139073,1.041176471,8.512605042,0.01990483003,8.838555146,0,0,0,0.02699556157,0.2893078656
29,Island of San Silvestro,San Polo,45.438285,12.333719,"<iframe src=""https://www.google.com/maps/embed?pb=!4v1750253217872!6m8!1m7!1sH8i3nhuLZ2kmQv-yyUgmvQ!2m2!1d45.44255157868555!2d12.32102953868646!3f45.158489315080956!4f-0.9877157406747727!5f0.7820865974627469"" width=""600"" height=""450"" style=""border:0;"" allowfullscreen="""" loading=""lazy"" referrerpolicy=""no-referrer-when-downgrade""></iframe>",3900000,6.281154805,335.5,7.406181015,3.606242497,4.848225004,0.01814375436,8.941313737,1.25,9.2,3.066666667,0.02301182378,0.2466146742
30,Island of San Boldo,San Polo,45.438864,12.328708,"<iframe src=""https://www.google.com/maps/embed?pb=!4v1750253217872!6m8!1m7!1sH8i3nhuLZ2kmQv-yyUgmvQ!2m2!1d45.44255157868555!2d12.32102953868646!3f45.158489315080956!4f-0.9877157406747727!5f0.7820865974627469"" width=""600"" height=""450"" style=""border:0;"" allowfullscreen="""" loading=""lazy"" referrerpolicy=""no-referrer-when-downgrade""></iframe>",5933750,4.169118665,15,0.3311258278,0.5958762887,9.148748159,0.03420595459,8.00408595,0,0,0,0.09613955412,1.030314896
31,Island of San Polo,San Polo,45.437385,12.329833,"<iframe src=""https://www.google.com/maps/embed?pb=!4v1750253217872!6m8!1m7!1sH8i3nhuLZ2kmQv-yyUgmvQ!2m2!1d45.44255157868555!2d12.32102953868646!3f45.158489315080956!4f-0.9877157406747727!5f0.7820865974627469"" width=""600"" height=""450"" style=""border:0;"" allowfullscreen="""" loading=""lazy"" referrerpolicy=""no-referrer-when-downgrade""></iframe>",9020000,0.9640681252,110,2.428256071,2.244837758,6.793088917,0.0296437394,8.270290753,0,0,0,0.08359425248,0.895868556
32,Island of Meloni,San Polo,45.437068,12.331381,"<iframe src=""https://www.google.com/maps/embed?pb=!4v1750253217872!6m8!1m7!1sH8i3nhuLZ2kmQv-yyUgmvQ!2m2!1d45.44255157868555!2d12.32102953868646!3f45.158489315080956!4f-0.9877157406747727!5f0.7820865974627469"" width=""600"" height=""450"" style=""border:0;"" allowfullscreen="""" loading=""lazy"" referrerpolicy=""no-referrer-when-downgrade""></iframe>",6413750,3.670641789,5,0.1103752759,0.5696202532,9.186256781,0.03467749051,7.976571876,2.5,0,0,0.1310657083,1.404613874
33,Island of Tolentini,San Croce,45.438563,12.32304,"<iframe src=""https://www.google.com/maps/embed?pb=!4v1750253217872!6m8!1m7!1sH8i3nhuLZ2kmQv-yyUgmvQ!2m2!1d45.44255157868555!2d12.32102953868646!3f45.158489315080956!4f-0.9877157406747727!5f0.7820865974627469"" width=""600"" height=""450"" style=""border:0;"" allowfullscreen="""" loading=""lazy"" referrerpolicy=""no-referrer-when-downgrade""></iframe>",3602500,6.590106619,245.5,5.419426049,1.082797428,8.453146532,0.01507824154,9.120186105,0,0,0,0.1973438728,2.114908203
34,Island of Frari,San Polo,45.437364,12.325836,"<iframe src=""https://www.google.com/maps/embed?pb=!4v1750253217872!6m8!1m7!1sH8i3nhuLZ2kmQv-yyUgmvQ!2m2!1d45.44255157868555!2d12.32102953868646!3f45.158489315080956!4f-0.9877157406747727!5f0.7820865974627469"" width=""600"" height=""450"" style=""border:0;"" allowfullscreen="""" loading=""lazy"" referrerpolicy=""no-referrer-when-downgrade""></iframe>",2810000,7.413112711,453,10,0.9024590164,8.710772834,0.01417289734,9.173012849,0,15.125,5.041666667,0.1510413041,1.618689695
35,Island of Nomboli,San Polo,45.436744,12.328398,"<iframe src=""https://www.google.com/maps/embed?pb=!4v1750253217872!6m8!1m7!1sH8i3nhuLZ2kmQv-yyUgmvQ!2m2!1d45.44255157868555!2d12.32102953868646!3f45.158489315080956!4f-0.9877157406747727!5f0.7820865974627469"" width=""600"" height=""450"" style=""border:0;"" allowfullscreen="""" loading=""lazy"" referrerpolicy=""no-referrer-when-downgrade""></iframe>",7765000,2.267377458,30,0.6622516556,1.899022801,7.287110284,0.0201261013,8.82564399,0,0,0,0.07022713406,0.7526149145
36,Island of Piazzale Roma,San Croce,45.437896,12.317422,"<iframe src=""https://www.google.com/maps/embed?pb=!4v1750253217872!6m8!1m7!1sH8i3nhuLZ2kmQv-yyUgmvQ!2m2!1d45.44255157868555!2d12.32102953868646!3f45.158489315080956!4f-0.9877157406747727!5f0.7820865974627469"" width=""600"" height=""450"" style=""border:0;"" allowfullscreen="""" loading=""lazy"" referrerpolicy=""no-referrer-when-downgrade""></iframe>",4351250,5.812534616,120,2.649006623,4.096774194,4.147465438,0.0005751393406,9.966440677,1,30,10,0.06303793395,0.6755692071
37,Island of Giardini Papadopoli,San Croce,45.438119,12.320677,"<iframe src=""https://www.google.com/maps/embed?pb=!4v1750253217872!6m8!1m7!1sH8i3nhuLZ2kmQv-yyUgmvQ!2m2!1d45.44255157868555!2d12.32102953868646!3f45.158489315080956!4f-0.9877157406747727!5f0.7820865974627469"" width=""600"" height=""450"" style=""border:0;"" allowfullscreen="""" loading=""lazy"" referrerpolicy=""no-referrer-when-downgrade""></iframe>",3596666.667,6.596164497,100,2.207505519,0,10,0.002903950468,9.830554779,2,0,0,0.5815776689,6.232691016
38,Island of Santa Marta,Dorsoduro,45.433562,12.313711,"<iframe src=""https://www.google.com/maps/embed?pb=!4v1750253217872!6m8!1m7!1sH8i3nhuLZ2kmQv-yyUgmvQ!2m2!1d45.44255157868555!2d12.32102953868646!3f45.158489315080956!4f-0.9877157406747727!5f0.7820865974627469"" width=""600"" height=""450"" style=""border:0;"" allowfullscreen="""" loading=""lazy"" referrerpolicy=""no-referrer-when-downgrade""></iframe>",0,10,6,0.1324503311,0.1649269311,9.764390098,0.0026924211,9.842897496,0,5.5,1.833333333,0.3399237933,3.642918368
39,Island of Santa Maria Maggiore,San Croce,45.435967,12.317957,"<iframe src=""https://www.google.com/maps/embed?pb=!4v1750253217872!6m8!1m7!1sH8i3nhuLZ2kmQv-yyUgmvQ!2m2!1d45.44255157868555!2d12.32102953868646!3f45.158489315080956!4f-0.9877157406747727!5f0.7820865974627469"" width=""600"" height=""450"" style=""border:0;"" allowfullscreen="""" loading=""lazy"" referrerpolicy=""no-referrer-when-downgrade""></iframe>",4401250,5.760609942,10,0.2207505519,0.9071428571,8.704081633,0.007957369528,9.535688279,0,0,0,0.3437364474,3.683778079
40,Island of Malcanton,Dorsoduro,45.436317,12.321703,"<iframe src=""https://www.google.com/maps/embed?pb=!4v1750253217872!6m8!1m7!1sH8i3nhuLZ2kmQv-yyUgmvQ!2m2!1d45.44255157868555!2d12.32102953868646!3f45.158489315080956!4f-0.9877157406747727!5f0.7820865974627469"" width=""600"" height=""450"" style=""border:0;"" allowfullscreen="""" loading=""lazy"" referrerpolicy=""no-referrer-when-downgrade""></iframe>",3691666.667,6.497507616,105,2.317880795,0.4848484848,9.307359307,0.007170381933,9.581608927,0,0,0,0.1684168092,1.804900686
41,Island of San Pantalon,Dorsoduro,45.435499,12.325683,"<iframe src=""https://www.google.com/maps/embed?pb=!4v1750253217872!6m8!1m7!1sH8i3nhuLZ2kmQv-yyUgmvQ!2m2!1d45.44255157868555!2d12.32102953868646!3f45.158489315080956!4f-0.9877157406747727!5f0.7820865974627469"" width=""600"" height=""450"" style=""border:0;"" allowfullscreen="""" loading=""lazy"" referrerpolicy=""no-referrer-when-downgrade""></iframe>",4292500,5.873546109,30,0.6622516556,1.585858586,7.734487734,0.01172670999,9.315747638,0,0,0,0.09732697331,1.04304031
42,Island of Ca'Rizzi,San Croce,45.435556,12.319233,"<iframe src=""https://www.google.com/maps/embed?pb=!4v1750253217872!6m8!1m7!1sH8i3nhuLZ2kmQv-yyUgmvQ!2m2!1d45.44255157868555!2d12.32102953868646!3f45.158489315080956!4f-0.9877157406747727!5f0.7820865974627469"" width=""600"" height=""450"" style=""border:0;"" allowfullscreen="""" loading=""lazy"" referrerpolicy=""no-referrer-when-downgrade""></iframe>",3782500,6.40317779,0,0,0.7142857143,8.979591837,0.01692273436,9.012560132,0,0,0,0.3432262131,3.678309965
43,Island of Ragusei,Dorsoduro,45.434899,12.321592,"<iframe src=""https://www.google.com/maps/embed?pb=!4v1750253217872!6m8!1m7!1sH8i3nhuLZ2kmQv-yyUgmvQ!2m2!1d45.44255157868555!2d12.32102953868646!3f45.158489315080956!4f-0.9877157406747727!5f0.7820865974627469"" width=""600"" height=""450"" style=""border:0;"" allowfullscreen="""" loading=""lazy"" referrerpolicy=""no-referrer-when-downgrade""></iframe>",4572500,5.582767931,110,2.428256071,0.3043478261,9.565217391,0.00636686009,9.628494347,0,0,0,0.2534634072,2.716333838
44,Island of Cereri,Dorsoduro,45.43489,12.318939,"<iframe src=""https://www.google.com/maps/embed?pb=!4v1750253217872!6m8!1m7!1sH8i3nhuLZ2kmQv-yyUgmvQ!2m2!1d45.44255157868555!2d12.32102953868646!3f45.158489315080956!4f-0.9877157406747727!5f0.7820865974627469"" width=""600"" height=""450"" style=""border:0;"" allowfullscreen="""" loading=""lazy"" referrerpolicy=""no-referrer-when-downgrade""></iframe>",3745000,6.442121296,15,0.3311258278,0.2235294118,9.680672269,0.01425340917,9.168314992,0,0,0,0.1116433812,1.196467361
45,Island of San Nicolò dei Mendicoli,Dorsoduro,45.433526,12.318236,"<iframe src=""https://www.google.com/maps/embed?pb=!4v1750253217872!6m8!1m7!1sH8i3nhuLZ2kmQv-yyUgmvQ!2m2!1d45.44255157868555!2d12.32102953868646!3f45.158489315080956!4f-0.9877157406747727!5f0.7820865974627469"" width=""600"" height=""450"" style=""border:0;"" allowfullscreen="""" loading=""lazy"" referrerpolicy=""no-referrer-when-downgrade""></iframe>",3910000,6.27076987,111,2.450331126,0.6507936508,9.070294785,0.006911226207,9.596730638,0,0,0,0.2925821692,3.13556444
46,Island of San Sebastiano,Dorsoduro,45.431731,12.318426,"<iframe src=""https://www.google.com/maps/embed?pb=!4v1750253217872!6m8!1m7!1sH8i3nhuLZ2kmQv-yyUgmvQ!2m2!1d45.44255157868555!2d12.32102953868646!3f45.158489315080956!4f-0.9877157406747727!5f0.7820865974627469"" width=""600"" height=""450"" style=""border:0;"" allowfullscreen="""" loading=""lazy"" referrerpolicy=""no-referrer-when-downgrade""></iframe>",5050833.333,5.086021878,101.5,2.240618102,0.2439759036,9.651462995,0.006920415225,9.59619446,0,0,0,0.1059149939,1.135076992
47,Island of Carmini,Dorsoduro,45.432828,12.323277,"<iframe src=""https://www.google.com/maps/embed?pb=!4v1750253217872!6m8!1m7!1sH8i3nhuLZ2kmQv-yyUgmvQ!2m2!1d45.44255157868555!2d12.32102953868646!3f45.158489315080956!4f-0.9877157406747727!5f0.7820865974627469"" width=""600"" height=""450"" style=""border:0;"" allowfullscreen="""" loading=""lazy"" referrerpolicy=""no-referrer-when-downgrade""></iframe>",6481250,3.600543478,366.5,8.090507726,1.080357143,8.456632653,0.008219609963,9.520386576,0,22.79516129,7.598387097,0.1652096796,1.770530302
48,Island of San Barnaba,Dorsoduro,45.432709,12.324099,"<iframe src=""https://www.google.com/maps/embed?pb=!4v1750253217872!6m8!1m7!1sH8i3nhuLZ2kmQv-yyUgmvQ!2m2!1d45.44255157868555!2d12.32102953868646!3f45.158489315080956!4f-0.9877157406747727!5f0.7820865974627469"" width=""600"" height=""450"" style=""border:0;"" allowfullscreen="""" loading=""lazy"" referrerpolicy=""no-referrer-when-downgrade""></iframe>",7580000,2.459498754,25,0.5518763797,0.2146892655,9.693301049,0.01348031496,9.213424962,0,8.7,2.9,0.1088228257,1.166239841
49,Island of Romite,Dorsoduro,45.431584,12.323539,"<iframe src=""https://www.google.com/maps/embed?pb=!4v1750253217872!6m8!1m7!1sH8i3nhuLZ2kmQv-yyUgmvQ!2m2!1d45.44255157868555!2d12.32102953868646!3f45.158489315080956!4f-0.9877157406747727!5f0.7820865974627469"" width=""600"" height=""450"" style=""border:0;"" allowfullscreen="""" loading=""lazy"" referrerpolicy=""no-referrer-when-downgrade""></iframe>",5551666.667,4.56590972,0.5,0.01103752759,1.063829787,8.480243161,0.004585854766,9.73241583,0,0,0,0.1879633568,2.014378454
50,Island of Cerchieri,Dorsoduro,45.432531,12.32634,"<iframe src=""https://www.google.com/maps/embed?pb=!4v1750253217872!6m8!1m7!1sH8i3nhuLZ2kmQv-yyUgmvQ!2m2!1d45.44255157868555!2d12.32102953868646!3f45.158489315080956!4f-0.9877157406747727!5f0.7820865974627469"" width=""600"" height=""450"" style=""border:0;"" allowfullscreen="""" loading=""lazy"" referrerpolicy=""no-referrer-when-downgrade""></iframe>",5882500,4.222341457,0,0,1.730769231,7.527472527,0.01591928251,9.071111448,0,0,0,0.185805906,1.991257339
51,Island of San Trovaso,Dorsoduro,45.431397,12.325676,"<iframe src=""https://www.google.com/maps/embed?pb=!4v1750253217872!6m8!1m7!1sH8i3nhuLZ2kmQv-yyUgmvQ!2m2!1d45.44255157868555!2d12.32102953868646!3f45.158489315080956!4f-0.9877157406747727!5f0.7820865974627469"" width=""600"" height=""450"" style=""border:0;"" allowfullscreen="""" loading=""lazy"" referrerpolicy=""no-referrer-when-downgrade""></iframe>",5867500,4.237918859,110.5,2.439293598,2.748502994,6.073567151,0.006633796504,9.612918633,0,0,0,0.2858801849,3.063740159
52,Island of Accademia,Dorsoduro,45.430454,12.327885,"<iframe src=""https://www.google.com/maps/embed?pb=!4v1750253217872!6m8!1m7!1sH8i3nhuLZ2kmQv-yyUgmvQ!2m2!1d45.44255157868555!2d12.32102953868646!3f45.158489315080956!4f-0.9877157406747727!5f0.7820865974627469"" width=""600"" height=""450"" style=""border:0;"" allowfullscreen="""" loading=""lazy"" referrerpolicy=""no-referrer-when-downgrade""></iframe>",4863750,5.280306702,223,4.922737307,3.558974359,4.915750916,0.008305457872,9.515377359,0,7.636842105,2.545614035,0.1235697973,1.324281187
53,Island of San Vio,Dorsoduro,45.430051,12.33029,"<iframe src=""https://www.google.com/maps/embed?pb=!4v1750253217872!6m8!1m7!1sH8i3nhuLZ2kmQv-yyUgmvQ!2m2!1d45.44255157868555!2d12.32102953868646!3f45.158489315080956!4f-0.9877157406747727!5f0.7820865974627469"" width=""600"" height=""450"" style=""border:0;"" allowfullscreen="""" loading=""lazy"" referrerpolicy=""no-referrer-when-downgrade""></iframe>",5358750,4.766252423,0,0,1.96,7.2,0.007714445599,9.549862866,0,0,0,0.1559534359,1.671332362
54,Island of Spirito Santo,Dorsoduro,45.429379,12.331502,"<iframe src=""https://www.google.com/maps/embed?pb=!4v1750253217872!6m8!1m7!1sH8i3nhuLZ2kmQv-yyUgmvQ!2m2!1d45.44255157868555!2d12.32102953868646!3f45.158489315080956!4f-0.9877157406747727!5f0.7820865974627469"" width=""600"" height=""450"" style=""border:0;"" allowfullscreen="""" loading=""lazy"" referrerpolicy=""no-referrer-when-downgrade""></iframe>",6077500,4.019835226,105,2.317880795,1.532663317,7.810480976,0.009352769679,9.454266819,0,6,2,0.136301536,1.460725548
55,Island of San Gregorio,Dorsoduro,45.429894,12.333566,"<iframe src=""https://www.google.com/maps/embed?pb=!4v1750253217872!6m8!1m7!1sH8i3nhuLZ2kmQv-yyUgmvQ!2m2!1d45.44255157868555!2d12.32102953868646!3f45.158489315080956!4f-0.9877157406747727!5f0.7820865974627469"" width=""600"" height=""450"" style=""border:0;"" allowfullscreen="""" loading=""lazy"" referrerpolicy=""no-referrer-when-downgrade""></iframe>",6458333.333,3.624342287,0,0,3.11827957,5.5453149,0.00547309833,9.680645256,0,0,0,0.09020033251,0.9666650427
56,Island of Salute,Dorsoduro,45.430537,12.335329,"<iframe src=""https://www.google.com/maps/embed?pb=!4v1750253217872!6m8!1m7!1sH8i3nhuLZ2kmQv-yyUgmvQ!2m2!1d45.44255157868555!2d12.32102953868646!3f45.158489315080956!4f-0.9877157406747727!5f0.7820865974627469"" width=""600"" height=""450"" style=""border:0;"" allowfullscreen="""" loading=""lazy"" referrerpolicy=""no-referrer-when-downgrade""></iframe>",902500,9.394039047,1,0.02207505519,2.333333333,6.666666667,0.0001535076498,9.991042844,0,4.2,1.4,0.1541626902,1.652141177
57,Island of Gesuiti,Cannaregio,45.44369,12.337624,"<iframe src=""https://www.google.com/maps/embed?pb=!4v1750253217872!6m8!1m7!1sH8i3nhuLZ2kmQv-yyUgmvQ!2m2!1d45.44255157868555!2d12.32102953868646!3f45.158489315080956!4f-0.9877157406747727!5f0.7820865974627469"" width=""600"" height=""450"" style=""border:0;"" allowfullscreen="""" loading=""lazy"" referrerpolicy=""no-referrer-when-downgrade""></iframe>",3786250,6.399283439,0.5,0.01103752759,0.5231958763,9.25257732,0.01177201989,9.313103809,0,3.783333333,1.261111111,0.1277667042,1.369258883
58,Island of Racchetta,Cannaregio,45.442815,12.335157,"<iframe src=""https://www.google.com/maps/embed?pb=!4v1750253217872!6m8!1m7!1sH8i3nhuLZ2kmQv-yyUgmvQ!2m2!1d45.44255157868555!2d12.32102953868646!3f45.158489315080956!4f-0.9877157406747727!5f0.7820865974627469"" width=""600"" height=""450"" style=""border:0;"" allowfullscreen="""" loading=""lazy"" referrerpolicy=""no-referrer-when-downgrade""></iframe>",3932500,6.247403766,5.5,0.1214128035,0.3518518519,9.497354497,0.02075927769,8.78869821,0,0,0,0.1192851102,1.278362761
59,Island of Sant'Andrea Maggiore,Cannaregio,45.44275,12.336369,"<iframe src=""https://www.google.com/maps/embed?pb=!4v1750253217872!6m8!1m7!1sH8i3nhuLZ2kmQv-yyUgmvQ!2m2!1d45.44255157868555!2d12.32102953868646!3f45.158489315080956!4f-0.9877157406747727!5f0.7820865974627469"" width=""600"" height=""450"" style=""border:0;"" allowfullscreen="""" loading=""lazy"" referrerpolicy=""no-referrer-when-downgrade""></iframe>",4765833.333,5.381992523,5,0.1103752759,2.802197802,5.996860283,0.04853401651,7.168044961,0,0,0,0.07882806423,0.8447899465
60,Island of Sartori,Cannaregio,45.442385,12.338014,"<iframe src=""https://www.google.com/maps/embed?pb=!4v1750253217872!6m8!1m7!1sH8i3nhuLZ2kmQv-yyUgmvQ!2m2!1d45.44255157868555!2d12.32102953868646!3f45.158489315080956!4f-0.9877157406747727!5f0.7820865974627469"" width=""600"" height=""450"" style=""border:0;"" allowfullscreen="""" loading=""lazy"" referrerpolicy=""no-referrer-when-downgrade""></iframe>",3595000,6.59789532,0,0,0.6733333333,9.038095238,0.03074096754,8.2062676,0,0,0,0.1206957566,1.293480472
61,Island of Biri,Cannaregio,45.4417,12.340121,"<iframe src=""https://www.google.com/maps/embed?pb=!4v1750253217872!6m8!1m7!1sH8i3nhuLZ2kmQv-yyUgmvQ!2m2!1d45.44255157868555!2d12.32102953868646!3f45.158489315080956!4f-0.9877157406747727!5f0.7820865974627469"" width=""600"" height=""450"" style=""border:0;"" allowfullscreen="""" loading=""lazy"" referrerpolicy=""no-referrer-when-downgrade""></iframe>",3761666.667,6.424813071,10,0.2207505519,1.196138211,8.291231127,0.04188716112,7.555888313,0,10.525,3.508333333,0.08020112063,0.8595048104
62,Island of Corrente,Cannaregio,45.442202,12.33559,"<iframe src=""https://www.google.com/maps/embed?pb=!4v1750253217872!6m8!1m7!1sH8i3nhuLZ2kmQv-yyUgmvQ!2m2!1d45.44255157868555!2d12.32102953868646!3f45.158489315080956!4f-0.9877157406747727!5f0.7820865974627469"" width=""600"" height=""450"" style=""border:0;"" allowfullscreen="""" loading=""lazy"" referrerpolicy=""no-referrer-when-downgrade""></iframe>",3407500,6.79261285,0,0,2.176100629,6.891284816,0.08369240968,5.116556215,0,0,0,0.03318351842,0.3556233814
63,Island of Do Pozzi,Cannaregio,45.441958,12.336312,"<iframe src=""https://www.google.com/maps/embed?pb=!4v1750253217872!6m8!1m7!1sH8i3nhuLZ2kmQv-yyUgmvQ!2m2!1d45.44255157868555!2d12.32102953868646!3f45.158489315080956!4f-0.9877157406747727!5f0.7820865974627469"" width=""600"" height=""450"" style=""border:0;"" allowfullscreen="""" loading=""lazy"" referrerpolicy=""no-referrer-when-downgrade""></iframe>",3666041.667,6.524119011,0,0,0.3711340206,9.469808542,0.03986810552,7.673700006,0,0,0,0.01879908448,0.2014673039
64,Island of Santi Apostoli,Cannaregio,45.441142,12.336173,"<iframe src=""https://www.google.com/maps/embed?pb=!4v1750253217872!6m8!1m7!1sH8i3nhuLZ2kmQv-yyUgmvQ!2m2!1d45.44255157868555!2d12.32102953868646!3f45.158489315080956!4f-0.9877157406747727!5f0.7820865974627469"" width=""600"" height=""450"" style=""border:0;"" allowfullscreen="""" loading=""lazy"" referrerpolicy=""no-referrer-when-downgrade""></iframe>",5143333.333,4.98996123,112,2.472406181,1.555851064,7.777355623,0.03106174453,8.187550294,0,10.55,3.516666667,0.05664810664,0.6070902723
65,Island of Panada,Cannaregio,45.440431,12.341048,"<iframe src=""https://www.google.com/maps/embed?pb=!4v1750253217872!6m8!1m7!1sH8i3nhuLZ2kmQv-yyUgmvQ!2m2!1d45.44255157868555!2d12.32102953868646!3f45.158489315080956!4f-0.9877157406747727!5f0.7820865974627469"" width=""600"" height=""450"" style=""border:0;"" allowfullscreen="""" loading=""lazy"" referrerpolicy=""no-referrer-when-downgrade""></iframe>",4082916.667,6.091197037,6,0.1324503311,1.337917485,8.088689307,0.03901410307,7.723530964,0,0,0,0.07255588288,0.7775718079
66,Island of San Zanipolo,Castello,45.439583,12.34353,"<iframe src=""https://www.google.com/maps/embed?pb=!4v1750253217872!6m8!1m7!1sH8i3nhuLZ2kmQv-yyUgmvQ!2m2!1d45.44255157868555!2d12.32102953868646!3f45.158489315080956!4f-0.9877157406747727!5f0.7820865974627469"" width=""600"" height=""450"" style=""border:0;"" allowfullscreen="""" loading=""lazy"" referrerpolicy=""no-referrer-when-downgrade""></iframe>",6566666.667,3.511838826,40.5,0.8940397351,0.7867867868,8.876018876,0.009679701281,9.435190392,0,9.927272727,3.309090909,0.09103378576,0.975597051
67,Island of San Francesco de la Vigna,Castello,45.437931,12.348774,"<iframe src=""https://www.google.com/maps/embed?pb=!4v1750253217872!6m8!1m7!1sH8i3nhuLZ2kmQv-yyUgmvQ!2m2!1d45.44255157868555!2d12.32102953868646!3f45.158489315080956!4f-0.9877157406747727!5f0.7820865974627469"" width=""600"" height=""450"" style=""border:0;"" allowfullscreen="""" loading=""lazy"" referrerpolicy=""no-referrer-when-downgrade""></iframe>",4140000,6.031916367,0,0,0.3959183673,9.434402332,0.007716526418,9.549741451,0,10.7,3.566666667,0.1807069207,1.936612187
68,Island of Bacini Arsenale,Castello,45.438255,12.358133,"<iframe src=""https://www.google.com/maps/embed?pb=!4v1750253217872!6m8!1m7!1sH8i3nhuLZ2kmQv-yyUgmvQ!2m2!1d45.44255157868555!2d12.32102953868646!3f45.158489315080956!4f-0.9877157406747727!5f0.7820865974627469"" width=""600"" height=""450"" style=""border:0;"" allowfullscreen="""" loading=""lazy"" referrerpolicy=""no-referrer-when-downgrade""></iframe>",0,10,100,2.207505519,0.1111111111,9.841269841,0.00024084671,9.985946618,0,1.227272727,0.4090909091,0.1336800043,1.432630939
69,Island of San Cancian,Cannaregio,45.439853,12.338017,"<iframe src=""https://www.google.com/maps/embed?pb=!4v1750253217872!6m8!1m7!1sH8i3nhuLZ2kmQv-yyUgmvQ!2m2!1d45.44255157868555!2d12.32102953868646!3f45.158489315080956!4f-0.9877157406747727!5f0.7820865974627469"" width=""600"" height=""450"" style=""border:0;"" allowfullscreen="""" loading=""lazy"" referrerpolicy=""no-referrer-when-downgrade""></iframe>",4543333.333,5.613057325,140,3.090507726,2.401590457,6.56915649,0.04375204746,7.44707238,0,0,0,0.02977601084,0.319105573
70,Island of S.M. dei Miracoli,Cannaregio,45.439218,12.339401,"<iframe src=""https://www.google.com/maps/embed?pb=!4v1750253217872!6m8!1m7!1sH8i3nhuLZ2kmQv-yyUgmvQ!2m2!1d45.44255157868555!2d12.32102953868646!3f45.158489315080956!4f-0.9877157406747727!5f0.7820865974627469"" width=""600"" height=""450"" style=""border:0;"" allowfullscreen="""" loading=""lazy"" referrerpolicy=""no-referrer-when-downgrade""></iframe>",4937500,5.203717807,0,0,1.333333333,8.095238095,0.02544483986,8.515296124,0,0,0,0.08435498251,0.9040211992
71,Island of San Zuane Grisostomo,Cannaregio,45.438969,12.33721,"<iframe src=""https://www.google.com/maps/embed?pb=!4v1750253217872!6m8!1m7!1sH8i3nhuLZ2kmQv-yyUgmvQ!2m2!1d45.44255157868555!2d12.32102953868646!3f45.158489315080956!4f-0.9877157406747727!5f0.7820865974627469"" width=""600"" height=""450"" style=""border:0;"" allowfullscreen="""" loading=""lazy"" referrerpolicy=""no-referrer-when-downgrade""></iframe>",4737500,5.411416505,10,0.2207505519,1.175595238,8.320578231,0.03980699638,7.677265718,0,0,0,0.01318015864,0.1412500183
72,Island of Santa Marina,Castello,45.438304,12.339027,"<iframe src=""https://www.google.com/maps/embed?pb=!4v1750253217872!6m8!1m7!1sH8i3nhuLZ2kmQv-yyUgmvQ!2m2!1d45.44255157868555!2d12.32102953868646!3f45.158489315080956!4f-0.9877157406747727!5f0.7820865974627469"" width=""600"" height=""450"" style=""border:0;"" allowfullscreen="""" loading=""lazy"" referrerpolicy=""no-referrer-when-downgrade""></iframe>",5273000,4.85530324,125,2.759381898,0.7967479675,8.861788618,0.03046284089,8.222496262,0,0,0,0.006480447691,0.06945010146
73,Island of Borgoloco,Castello,45.438106,12.340232,"<iframe src=""https://www.google.com/maps/embed?pb=!4v1750253217872!6m8!1m7!1sH8i3nhuLZ2kmQv-yyUgmvQ!2m2!1d45.44255157868555!2d12.32102953868646!3f45.158489315080956!4f-0.9877157406747727!5f0.7820865974627469"" width=""600"" height=""450"" style=""border:0;"" allowfullscreen="""" loading=""lazy"" referrerpolicy=""no-referrer-when-downgrade""></iframe>",6247500,3.843291332,0,0,0.40625,9.419642857,0.01649257834,9.037659693,0,0,0,0.01078872367,0.1156213257
74,Island of Santa Maria Formosa,Castello,45.437582,12.341371,"<iframe src=""https://www.google.com/maps/embed?pb=!4v1750253217872!6m8!1m7!1sH8i3nhuLZ2kmQv-yyUgmvQ!2m2!1d45.44255157868555!2d12.32102953868646!3f45.158489315080956!4f-0.9877157406747727!5f0.7820865974627469"" width=""600"" height=""450"" style=""border:0;"" allowfullscreen="""" loading=""lazy"" referrerpolicy=""no-referrer-when-downgrade""></iframe>",6920000,3.144904459,10.5,0.2317880795,1.063829787,8.480243161,0.02402942037,8.59788571,1.111111111,0,0,0.005003873237,0.05362584818
75,Island of San Zuane Laterano,Castello,45.437931,12.343551,"<iframe src=""https://www.google.com/maps/embed?pb=!4v1750253217872!6m8!1m7!1sH8i3nhuLZ2kmQv-yyUgmvQ!2m2!1d45.44255157868555!2d12.32102953868646!3f45.158489315080956!4f-0.9877157406747727!5f0.7820865974627469"" width=""600"" height=""450"" style=""border:0;"" allowfullscreen="""" loading=""lazy"" referrerpolicy=""no-referrer-when-downgrade""></iframe>",5416250,4.706539047,0.5,0.01103752759,0.1710526316,9.755639098,0.01463082681,9.14629271,0,0,0,0,0
76,Island of San Severo,Castello,45.436844,12.343519,"<iframe src=""https://www.google.com/maps/embed?pb=!4v1750253217872!6m8!1m7!1sH8i3nhuLZ2kmQv-yyUgmvQ!2m2!1d45.44255157868555!2d12.32102953868646!3f45.158489315080956!4f-0.9877157406747727!5f0.7820865974627469"" width=""600"" height=""450"" style=""border:0;"" allowfullscreen="""" loading=""lazy"" referrerpolicy=""no-referrer-when-downgrade""></iframe>",5779166.667,4.329652451,5,0.1103752759,1.06640625,8.4765625,0.02255671158,8.683818121,0,0,0,0.05368598883,0.5753456472
77,Island of San Bortolomio,San Marco,45.437166,12.336744,"<iframe src=""https://www.google.com/maps/embed?pb=!4v1750253217872!6m8!1m7!1sH8i3nhuLZ2kmQv-yyUgmvQ!2m2!1d45.44255157868555!2d12.32102953868646!3f45.158489315080956!4f-0.9877157406747727!5f0.7820865974627469"" width=""600"" height=""450"" style=""border:0;"" allowfullscreen="""" loading=""lazy"" referrerpolicy=""no-referrer-when-downgrade""></iframe>",4887500,5.255642481,31,0.6843267108,6.692883895,0.4387372927,0.01654877189,9.034380805,1.25,8.916666667,2.972222222,0.001085500653,0.01163316704
78,Island of Santa Maria della Fava,Castello,45.436999,12.339105,"<iframe src=""https://www.google.com/maps/embed?pb=!4v1750253217872!6m8!1m7!1sH8i3nhuLZ2kmQv-yyUgmvQ!2m2!1d45.44255157868555!2d12.32102953868646!3f45.158489315080956!4f-0.9877157406747727!5f0.7820865974627469"" width=""600"" height=""450"" style=""border:0;"" allowfullscreen="""" loading=""lazy"" referrerpolicy=""no-referrer-when-downgrade""></iframe>",8045000,1.97659928,46,1.015452539,1.53343949,7.809372157,0.02904637434,8.305146944,0,0,0,0.00368692108,0.03951224596
79,Island of Querini Stampalia,Castello,45.436346,12.342174,"<iframe src=""https://www.google.com/maps/embed?pb=!4v1750253217872!6m8!1m7!1sH8i3nhuLZ2kmQv-yyUgmvQ!2m2!1d45.44255157868555!2d12.32102953868646!3f45.158489315080956!4f-0.9877157406747727!5f0.7820865974627469"" width=""600"" height=""450"" style=""border:0;"" allowfullscreen="""" loading=""lazy"" referrerpolicy=""no-referrer-when-downgrade""></iframe>",6270000,3.819925228,20,0.4415011038,0.634502924,9.093567251,0.02674190383,8.43961257,0,0,0,0.009314699926,0.09982440808
80,Island of San Luca,San Marco,45.435814,12.334915,"<iframe src=""https://www.google.com/maps/embed?pb=!4v1750253217872!6m8!1m7!1sH8i3nhuLZ2kmQv-yyUgmvQ!2m2!1d45.44255157868555!2d12.32102953868646!3f45.158489315080956!4f-0.9877157406747727!5f0.7820865974627469"" width=""600"" height=""450"" style=""border:0;"" allowfullscreen="""" loading=""lazy"" referrerpolicy=""no-referrer-when-downgrade""></iframe>",5518750,4.600093464,86,1.898454746,6.138297872,1.23100304,0.009027604036,9.473240202,2.222222222,9.95,3.316666667,0.003509595932,0.03761187577
81,Island of Sant'Anzolo,San Marco,45.434929,12.332492,"<iframe src=""https://www.google.com/maps/embed?pb=!4v1750253217872!6m8!1m7!1sH8i3nhuLZ2kmQv-yyUgmvQ!2m2!1d45.44255157868555!2d12.32102953868646!3f45.158489315080956!4f-0.9877157406747727!5f0.7820865974627469"" width=""600"" height=""450"" style=""border:0;"" allowfullscreen="""" loading=""lazy"" referrerpolicy=""no-referrer-when-downgrade""></iframe>",5362500,4.762358073,12,0.2649006623,3.402941176,5.138655462,0.01438918397,9.160392546,2.5,0,0,0.03701598927,0.396695465
82,Island of Ca'Garzoni,San Marco,45.43509,12.330727,"<iframe src=""https://www.google.com/maps/embed?pb=!4v1750253217872!6m8!1m7!1sH8i3nhuLZ2kmQv-yyUgmvQ!2m2!1d45.44255157868555!2d12.32102953868646!3f45.158489315080956!4f-0.9877157406747727!5f0.7820865974627469"" width=""600"" height=""450"" style=""border:0;"" allowfullscreen="""" loading=""lazy"" referrerpolicy=""no-referrer-when-downgrade""></iframe>",5775833.333,4.333114096,0,0,0.2962962963,9.576719577,0.01706276661,9.004389265,0,2.35,0.7833333333,0.04634641297,0.4966883826
83,Island of Santo Stefano,San Marco,45.433619,12.329575,"<iframe src=""https://www.google.com/maps/embed?pb=!4v1750253217872!6m8!1m7!1sH8i3nhuLZ2kmQv-yyUgmvQ!2m2!1d45.44255157868555!2d12.32102953868646!3f45.158489315080956!4f-0.9877157406747727!5f0.7820865974627469"" width=""600"" height=""450"" style=""border:0;"" allowfullscreen="""" loading=""lazy"" referrerpolicy=""no-referrer-when-downgrade""></iframe>",5383333.333,4.740722791,101.5,2.240618102,2.513742072,6.408939897,0.01314934253,9.23273717,0.9090909091,12.28333333,4.094444444,0.07050826323,0.7556277387
84,Island of Duca,San Marco,45.432615,12.329026,"<iframe src=""https://www.google.com/maps/embed?pb=!4v1750253217872!6m8!1m7!1sH8i3nhuLZ2kmQv-yyUgmvQ!2m2!1d45.44255157868555!2d12.32102953868646!3f45.158489315080956!4f-0.9877157406747727!5f0.7820865974627469"" width=""600"" height=""450"" style=""border:0;"" allowfullscreen="""" loading=""lazy"" referrerpolicy=""no-referrer-when-downgrade""></iframe>",5400000,4.723414567,200,4.415011038,0.2716049383,9.611992945,0.0266081116,8.447419333,0,0,0,0.09003809361,0.9649263498
85,Island of San Maurizio Maggiore,San Marco,45.43246,12.331544,"<iframe src=""https://www.google.com/maps/embed?pb=!4v1750253217872!6m8!1m7!1sH8i3nhuLZ2kmQv-yyUgmvQ!2m2!1d45.44255157868555!2d12.32102953868646!3f45.158489315080956!4f-0.9877157406747727!5f0.7820865974627469"" width=""600"" height=""450"" style=""border:0;"" allowfullscreen="""" loading=""lazy"" referrerpolicy=""no-referrer-when-downgrade""></iframe>",560000,9.749723068,5,0.1103752759,2.803797468,5.994575045,0.01899403731,8.891699811,0,0,0,0.03570783632,0.3826761627
86,Island of Ca'Duodo,San Marco,45.43269,12.332388,"<iframe src=""https://www.google.com/maps/embed?pb=!4v1750253217872!6m8!1m7!1sH8i3nhuLZ2kmQv-yyUgmvQ!2m2!1d45.44255157868555!2d12.32102953868646!3f45.158489315080956!4f-0.9877157406747727!5f0.7820865974627469"" width=""600"" height=""450"" style=""border:0;"" allowfullscreen="""" loading=""lazy"" referrerpolicy=""no-referrer-when-downgrade""></iframe>",5940000,4.162628081,0,0,2.619047619,6.258503401,0.03505535055,7.95452378,0,0,0,0.01996609998,0.2139740548
87,Island of Santa Maria Zobenigo,San Marco,45.432322,12.333023,"<iframe src=""https://www.google.com/maps/embed?pb=!4v1750253217872!6m8!1m7!1sH8i3nhuLZ2kmQv-yyUgmvQ!2m2!1d45.44255157868555!2d12.32102953868646!3f45.158489315080956!4f-0.9877157406747727!5f0.7820865974627469"" width=""600"" height=""450"" style=""border:0;"" allowfullscreen="""" loading=""lazy"" referrerpolicy=""no-referrer-when-downgrade""></iframe>",4794166.667,5.352568541,0,0,3.409638554,5.12908778,0.02102784769,8.773027178,0,5.35,1.783333333,0.01786399255,0.1914460473
88,Island of San Fantin,San Marco,45.43389,12.33389,"<iframe src=""https://www.google.com/maps/embed?pb=!4v1750253217872!6m8!1m7!1sH8i3nhuLZ2kmQv-yyUgmvQ!2m2!1d45.44255157868555!2d12.32102953868646!3f45.158489315080956!4f-0.9877157406747727!5f0.7820865974627469"" width=""600"" height=""450"" style=""border:0;"" allowfullscreen="""" loading=""lazy"" referrerpolicy=""no-referrer-when-downgrade""></iframe>",5547500,4.570236777,5,0.1103752759,6.623376623,0.5380333952,0.01110715134,9.351898823,0,0,0,0.01430693182,0.1533254976
89,Island of San Moisè,San Marco,45.432573,12.334596,"<iframe src=""https://www.google.com/maps/embed?pb=!4v1750253217872!6m8!1m7!1sH8i3nhuLZ2kmQv-yyUgmvQ!2m2!1d45.44255157868555!2d12.32102953868646!3f45.158489315080956!4f-0.9877157406747727!5f0.7820865974627469"" width=""600"" height=""450"" style=""border:0;"" allowfullscreen="""" loading=""lazy"" referrerpolicy=""no-referrer-when-downgrade""></iframe>",6640000,3.435682636,105,2.317880795,1.616541353,7.690655209,0.008191965048,9.521999654,0,0,0,0.04499503537,0.4822058476
90,Island of Giardinetti Reali,San Marco,45.432941,12.338208,"<iframe src=""https://www.google.com/maps/embed?pb=!4v1750253217872!6m8!1m7!1sH8i3nhuLZ2kmQv-yyUgmvQ!2m2!1d45.44255157868555!2d12.32102953868646!3f45.158489315080956!4f-0.9877157406747727!5f0.7820865974627469"" width=""600"" height=""450"" style=""border:0;"" allowfullscreen="""" loading=""lazy"" referrerpolicy=""no-referrer-when-downgrade""></iframe>",3750000,6.436928829,0,0,3,5.714285714,0,10,0,4.145238095,1.381746032,0.7527362032,8.066974409
91,Island of San Gallo,San Marco,45.435003,12.337222,"<iframe src=""https://www.google.com/maps/embed?pb=!4v1750253217872!6m8!1m7!1sH8i3nhuLZ2kmQv-yyUgmvQ!2m2!1d45.44255157868555!2d12.32102953868646!3f45.158489315080956!4f-0.9877157406747727!5f0.7820865974627469"" width=""600"" height=""450"" style=""border:0;"" allowfullscreen="""" loading=""lazy"" referrerpolicy=""no-referrer-when-downgrade""></iframe>",4622500,5.530843257,115,2.538631347,6.22605364,1.105637657,0.02600333101,8.482708221,0,0,0,0.02301630186,0.2466626652
92,Island of San Marco,San Marco,45.434192,12.338053,"<iframe src=""https://www.google.com/maps/embed?pb=!4v1750253217872!6m8!1m7!1sH8i3nhuLZ2kmQv-yyUgmvQ!2m2!1d45.44255157868555!2d12.32102953868646!3f45.158489315080956!4f-0.9877157406747727!5f0.7820865974627469"" width=""600"" height=""450"" style=""border:0;"" allowfullscreen="""" loading=""lazy"" referrerpolicy=""no-referrer-when-downgrade""></iframe>",7700833.333,2.334014124,126,2.781456954,6.975485189,0.03502115862,0.01624981475,9.051824925,0.3703703704,28.575,9.525,0.002891013357,0.03098260807
93,Island of San Filippo e Giacomo,Castello,45.434945,12.341406,"<iframe src=""https://www.google.com/maps/embed?pb=!4v1750253217872!6m8!1m7!1sH8i3nhuLZ2kmQv-yyUgmvQ!2m2!1d45.44255157868555!2d12.32102953868646!3f45.158489315080956!4f-0.9877157406747727!5f0.7820865974627469"" width=""600"" height=""450"" style=""border:0;"" allowfullscreen="""" loading=""lazy"" referrerpolicy=""no-referrer-when-downgrade""></iframe>",7228958.333,2.82405324,115.5,2.549668874,4.205714286,3.991836735,0.02091377091,8.779683546,0,15.14019608,5.046732026,0.003935777888,0.04217921147
94,Island of San Zaccaria,Castello,45.434662,12.343332,"<iframe src=""https://www.google.com/maps/embed?pb=!4v1750253217872!6m8!1m7!1sH8i3nhuLZ2kmQv-yyUgmvQ!2m2!1d45.44255157868555!2d12.32102953868646!3f45.158489315080956!4f-0.9877157406747727!5f0.7820865974627469"" width=""600"" height=""450"" style=""border:0;"" allowfullscreen="""" loading=""lazy"" referrerpolicy=""no-referrer-when-downgrade""></iframe>",6433333.333,3.650304625,1.5,0.03311258278,0.7460815047,8.934169279,0.01401301654,9.182341878,0,7.354225352,2.451408451,0.006206526526,0.06651452453
95,Island of San Lorenzo,Castello,45.435899,12.345109,"<iframe src=""https://www.google.com/maps/embed?pb=!4v1750253217872!6m8!1m7!1sH8i3nhuLZ2kmQv-yyUgmvQ!2m2!1d45.44255157868555!2d12.32102953868646!3f45.158489315080956!4f-0.9877157406747727!5f0.7820865974627469"" width=""600"" height=""450"" style=""border:0;"" allowfullscreen="""" loading=""lazy"" referrerpolicy=""no-referrer-when-downgrade""></iframe>",5290000,4.837648851,16,0.353200883,1.436363636,7.948051948,0.02474774544,8.555971514,0,8.916666667,2.972222222,0.04342603946,0.4653911257
96,Island of Bragora,Castello,45.435617,12.347135,"<iframe src=""https://www.google.com/maps/embed?pb=!4v1750253217872!6m8!1m7!1sH8i3nhuLZ2kmQv-yyUgmvQ!2m2!1d45.44255157868555!2d12.32102953868646!3f45.158489315080956!4f-0.9877157406747727!5f0.7820865974627469"" width=""600"" height=""450"" style=""border:0;"" allowfullscreen="""" loading=""lazy"" referrerpolicy=""no-referrer-when-downgrade""></iframe>",5062500,5.07390612,385,8.498896247,2.375275938,6.60674866,0.03817400811,7.772550422,0,0,0,0.06178679147,0.6621608785
97,Island of Santa Ternita,Castello,45.436035,12.348763,"<iframe src=""https://www.google.com/maps/embed?pb=!4v1750253217872!6m8!1m7!1sH8i3nhuLZ2kmQv-yyUgmvQ!2m2!1d45.44255157868555!2d12.32102953868646!3f45.158489315080956!4f-0.9877157406747727!5f0.7820865974627469"" width=""600"" height=""450"" style=""border:0;"" allowfullscreen="""" loading=""lazy"" referrerpolicy=""no-referrer-when-downgrade""></iframe>",3432500,6.766650512,0,0,1.774553571,7.464923469,0.05323112501,6.893969147,0,0,0,0.03515558826,0.3767577932
98,Island of San Martin,Castello,45.433808,12.349181,"<iframe src=""https://www.google.com/maps/embed?pb=!4v1750253217872!6m8!1m7!1sH8i3nhuLZ2kmQv-yyUgmvQ!2m2!1d45.44255157868555!2d12.32102953868646!3f45.158489315080956!4f-0.9877157406747727!5f0.7820865974627469"" width=""600"" height=""450"" style=""border:0;"" allowfullscreen="""" loading=""lazy"" referrerpolicy=""no-referrer-when-downgrade""></iframe>",5857583.333,4.248217253,5,0.1103752759,2.133531157,6.952098347,0.04102938649,7.605939377,1.111111111,9.85,3.283333333,0.03134832885,0.3359558973
99,Island of Arsenale,Castello,45.434273,12.353678,"<iframe src=""https://www.google.com/maps/embed?pb=!4v1750253217872!6m8!1m7!1sH8i3nhuLZ2kmQv-yyUgmvQ!2m2!1d45.44255157868555!2d12.32102953868646!3f45.158489315080956!4f-0.9877157406747727!5f0.7820865974627469"" width=""600"" height=""450"" style=""border:0;"" allowfullscreen="""" loading=""lazy"" referrerpolicy=""no-referrer-when-downgrade""></iframe>",4750000,5.398435336,0,0,2.460176991,6.485461441,0.002270473193,9.867518115,4,0,0,0.1393914924,1.493840202
100,Island of San Daniel,Castello,45.43402,12.356369,"<iframe src=""https://www.google.com/maps/embed?pb=!4v1750253217872!6m8!1m7!1sH8i3nhuLZ2kmQv-yyUgmvQ!2m2!1d45.44255157868555!2d12.32102953868646!3f45.158489315080956!4f-0.9877157406747727!5f0.7820865974627469"" width=""600"" height=""450"" style=""border:0;"" allowfullscreen="""" loading=""lazy"" referrerpolicy=""no-referrer-when-downgrade""></iframe>",3999500,6.177824702,0,0,0.3071161049,9.561262707,0.0139512508,9.185945903,0,0,0,0.2353060565,2.521743909
101,Island of Campo Ruga,Castello,45.433776,12.357429,"<iframe src=""https://www.google.com/maps/embed?pb=!4v1750253217872!6m8!1m7!1sH8i3nhuLZ2kmQv-yyUgmvQ!2m2!1d45.44255157868555!2d12.32102953868646!3f45.158489315080956!4f-0.9877157406747727!5f0.7820865974627469"" width=""600"" height=""450"" style=""border:0;"" allowfullscreen="""" loading=""lazy"" referrerpolicy=""no-referrer-when-downgrade""></iframe>",319000,10,15,0.3311258278,1.18134715,8.312361214,0.04070779346,7.624704298,2.5,0,0,0.02141636038,0.2295163039
102,Island of San Piero,Castello,45.433903,12.35992,"<iframe src=""https://www.google.com/maps/embed?pb=!4v1750253217872!6m8!1m7!1sH8i3nhuLZ2kmQv-yyUgmvQ!2m2!1d45.44255157868555!2d12.32102953868646!3f45.158489315080956!4f-0.9877157406747727!5f0.7820865974627469"" width=""600"" height=""450"" style=""border:0;"" allowfullscreen="""" loading=""lazy"" referrerpolicy=""no-referrer-when-downgrade""></iframe>",3437500,6.761458045,0,0,0.1643454039,9.765220852,0.006902314699,9.597250623,0,2.55,0.85,0.2529280677,2.710596674
103,Island of Sant'Ana,Castello,45.431757,12.354855,"<iframe src=""https://www.google.com/maps/embed?pb=!4v1750253217872!6m8!1m7!1sH8i3nhuLZ2kmQv-yyUgmvQ!2m2!1d45.44255157868555!2d12.32102953868646!3f45.158489315080956!4f-0.9877157406747727!5f0.7820865974627469"" width=""600"" height=""450"" style=""border:0;"" allowfullscreen="""" loading=""lazy"" referrerpolicy=""no-referrer-when-downgrade""></iframe>",3958666.667,6.220229853,286.5,6.324503311,1.327868852,8.103044496,0.03304524657,8.071813148,1.666666667,0,0,0.1500488269,1.608053448
104,Island of San Isepo,Castello,45.42937,12.357634,"<iframe src=""https://www.google.com/maps/embed?pb=!4v1750253217872!6m8!1m7!1sH8i3nhuLZ2kmQv-yyUgmvQ!2m2!1d45.44255157868555!2d12.32102953868646!3f45.158489315080956!4f-0.9877157406747727!5f0.7820865974627469"" width=""600"" height=""450"" style=""border:0;"" allowfullscreen="""" loading=""lazy"" referrerpolicy=""no-referrer-when-downgrade""></iframe>",3000000,7.215798948,300,6.622516556,0.3846153846,9.450549451,0.003786152498,9.779078378,1.428571429,8.340123457,2.780041152,0.6211416498,6.656692971
105,Island of Sant'Elena,Castello,45.428661,12.361295,"<iframe src=""https://www.google.com/maps/embed?pb=!4v1750253217872!6m8!1m7!1sH8i3nhuLZ2kmQv-yyUgmvQ!2m2!1d45.44255157868555!2d12.32102953868646!3f45.158489315080956!4f-0.9877157406747727!5f0.7820865974627469"" width=""600"" height=""450"" style=""border:0;"" allowfullscreen="""" loading=""lazy"" referrerpolicy=""no-referrer-when-downgrade""></iframe>",5552500,4.565044309,125.5,2.770419426,0.08130563798,9.883849089,0.008096805766,9.527552188,7.5,8.75,2.916666667,0.4411015785,4.727227321
106,Island of Stadio Sant'Elena,Castello,45.426949,12.36492,"<iframe src=""https://www.google.com/maps/embed?pb=!4v1750253217872!6m8!1m7!1sH8i3nhuLZ2kmQv-yyUgmvQ!2m2!1d45.44255157868555!2d12.32102953868646!3f45.158489315080956!4f-0.9877157406747727!5f0.7820865974627469"" width=""600"" height=""450"" style=""border:0;"" allowfullscreen="""" loading=""lazy"" referrerpolicy=""no-referrer-when-downgrade""></iframe>",5645000,4.468983661,1,0.02207505519,0.25,9.642857143,0.00003957457334,9.997690828,10,0,0,0.3574727765,3.830988503
107,Island of Sacca Fisola,Giudecca,45.42768,12.315078,"<iframe src=""https://www.google.com/maps/embed?pb=!4v1750253217872!6m8!1m7!1sH8i3nhuLZ2kmQv-yyUgmvQ!2m2!1d45.44255157868555!2d12.32102953868646!3f45.158489315080956!4f-0.9877157406747727!5f0.7820865974627469"" width=""600"" height=""450"" style=""border:0;"" allowfullscreen="""" loading=""lazy"" referrerpolicy=""no-referrer-when-downgrade""></iframe>",320000,9.998961507,11,0.2428256071,0.004394726328,9.99372182,0.02375350775,8.613985184,6.666666667,3.695121951,1.231707317,0.3519018643,3.771285773
108,Island of AMAV,Dorsoduro,45.425767,12.312107,"<iframe src=""https://www.google.com/maps/embed?pb=!4v1750253217872!6m8!1m7!1sH8i3nhuLZ2kmQv-yyUgmvQ!2m2!1d45.44255157868555!2d12.32102953868646!3f45.158489315080956!4f-0.9877157406747727!5f0.7820865974627469"" width=""600"" height=""450"" style=""border:0;"" allowfullscreen="""" loading=""lazy"" referrerpolicy=""no-referrer-when-downgrade""></iframe>",0,10,0,0,0,10,0,10,5,0,0,0.3773027015,4.043503188
109,Island of Piscina Comunale,Dorsoduro,45.425929,12.313759,"<iframe src=""https://www.google.com/maps/embed?pb=!4v1750253217872!6m8!1m7!1sH8i3nhuLZ2kmQv-yyUgmvQ!2m2!1d45.44255157868555!2d12.32102953868646!3f45.158489315080956!4f-0.9877157406747727!5f0.7820865974627469"" width=""600"" height=""450"" style=""border:0;"" allowfullscreen="""" loading=""lazy"" referrerpolicy=""no-referrer-when-downgrade""></iframe>",0,10,0,0,0,10,0,10,10,0,0,0.4071341532,4.363202913
110,Island of Sacca San Biagio,Dorsoduro,45.42598,12.315241,"<iframe src=""https://www.google.com/maps/embed?pb=!4v1750253217872!6m8!1m7!1sH8i3nhuLZ2kmQv-yyUgmvQ!2m2!1d45.44255157868555!2d12.32102953868646!3f45.158489315080956!4f-0.9877157406747727!5f0.7820865974627469"" width=""600"" height=""450"" style=""border:0;"" allowfullscreen="""" loading=""lazy"" referrerpolicy=""no-referrer-when-downgrade""></iframe>",0,10,0,0,0,10,0,10,10,0,0,0.3201129745,3.430608441
111,Island of Molino Stucky,Giudecca,45.426998,12.318912,"<iframe src=""https://www.google.com/maps/embed?pb=!4v1750253217872!6m8!1m7!1sH8i3nhuLZ2kmQv-yyUgmvQ!2m2!1d45.44255157868555!2d12.32102953868646!3f45.158489315080956!4f-0.9877157406747727!5f0.7820865974627469"" width=""600"" height=""450"" style=""border:0;"" allowfullscreen="""" loading=""lazy"" referrerpolicy=""no-referrer-when-downgrade""></iframe>",4125000,6.047493769,0,0,0.1388012618,9.801712483,0.008574414517,9.499683765,0,0,0,0.3265425437,3.499513285
112,Island of San Biagio,Giudecca,45.427112,12.321629,"<iframe src=""https://www.google.com/maps/embed?pb=!4v1750253217872!6m8!1m7!1sH8i3nhuLZ2kmQv-yyUgmvQ!2m2!1d45.44255157868555!2d12.32102953868646!3f45.158489315080956!4f-0.9877157406747727!5f0.7820865974627469"" width=""600"" height=""450"" style=""border:0;"" allowfullscreen="""" loading=""lazy"" referrerpolicy=""no-referrer-when-downgrade""></iframe>",4485000,5.673636112,0,0,0.1266233766,9.819109462,0.01823363327,8.936069311,0,0,0,0.3166015024,3.39297646
113,Island of Convertite,Dorsoduro,45.425407,12.320932,"<iframe src=""https://www.google.com/maps/embed?pb=!4v1750253217872!6m8!1m7!1sH8i3nhuLZ2kmQv-yyUgmvQ!2m2!1d45.44255157868555!2d12.32102953868646!3f45.158489315080956!4f-0.9877157406747727!5f0.7820865974627469"" width=""600"" height=""450"" style=""border:0;"" allowfullscreen="""" loading=""lazy"" referrerpolicy=""no-referrer-when-downgrade""></iframe>",750000,9.552409305,0,0,0.04761904762,9.931972789,0.002285397694,9.866647272,0,0,0,0.3819786783,4.093615014
114,Island of Sant'Eufemia,Dorsoduro,45.425293,12.324361,"<iframe src=""https://www.google.com/maps/embed?pb=!4v1750253217872!6m8!1m7!1sH8i3nhuLZ2kmQv-yyUgmvQ!2m2!1d45.44255157868555!2d12.32102953868646!3f45.158489315080956!4f-0.9877157406747727!5f0.7820865974627469"" width=""600"" height=""450"" style=""border:0;"" allowfullscreen="""" loading=""lazy"" referrerpolicy=""no-referrer-when-downgrade""></iframe>",389000,9.927305456,21,0.4635761589,0.1162790698,9.833887043,0.006418485237,9.625482024,2,5.895121951,1.96504065,0.2263271649,2.425518315
115,Island of Palada,Dorsoduro,45.425513,12.327599,"<iframe src=""https://www.google.com/maps/embed?pb=!4v1750253217872!6m8!1m7!1sH8i3nhuLZ2kmQv-yyUgmvQ!2m2!1d45.44255157868555!2d12.32102953868646!3f45.158489315080956!4f-0.9877157406747727!5f0.7820865974627469"" width=""600"" height=""450"" style=""border:0;"" allowfullscreen="""" loading=""lazy"" referrerpolicy=""no-referrer-when-downgrade""></iframe>",3877500,6.304520908,17,0.3752759382,0.0303030303,9.956709957,0.006163328197,9.640370412,3.333333333,0,0,0.08064163322,0.8642257257
116,Island of Junghans,Dorsoduro,45.424132,12.326689,"<iframe src=""https://www.google.com/maps/embed?pb=!4v1750253217872!6m8!1m7!1sH8i3nhuLZ2kmQv-yyUgmvQ!2m2!1d45.44255157868555!2d12.32102953868646!3f45.158489315080956!4f-0.9877157406747727!5f0.7820865974627469"" width=""600"" height=""450"" style=""border:0;"" allowfullscreen="""" loading=""lazy"" referrerpolicy=""no-referrer-when-downgrade""></iframe>",3790000,6.395389089,400,8.830022075,0.2266666667,9.676190476,0.008077615347,9.528671947,0,0,0,0.182058587,1.951097816
117,Island of Redentore,Dorsoduro,45.424359,12.330992,"<iframe src=""https://www.google.com/maps/embed?pb=!4v1750253217872!6m8!1m7!1sH8i3nhuLZ2kmQv-yyUgmvQ!2m2!1d45.44255157868555!2d12.32102953868646!3f45.158489315080956!4f-0.9877157406747727!5f0.7820865974627469"" width=""600"" height=""450"" style=""border:0;"" allowfullscreen="""" loading=""lazy"" referrerpolicy=""no-referrer-when-downgrade""></iframe>",4181250,5.98907851,111,2.450331126,0.6015831135,9.140595552,0.006042115339,9.647443171,0,2.795121951,0.9317073171,0.2344023637,2.512059154
118,Island of Zittelle,Dorsoduro,45.425191,12.337782,"<iframe src=""https://www.google.com/maps/embed?pb=!4v1750253217872!6m8!1m7!1sH8i3nhuLZ2kmQv-yyUgmvQ!2m2!1d45.44255157868555!2d12.32102953868646!3f45.158489315080956!4f-0.9877157406747727!5f0.7820865974627469"" width=""600"" height=""450"" style=""border:0;"" allowfullscreen="""" loading=""lazy"" referrerpolicy=""no-referrer-when-downgrade""></iframe>",605000,9.702990861,20,0.4415011038,0.05500705219,9.921418497,0.003580813769,9.791059873,0,2.795121951,0.9317073171,0.4504668845,4.827594068
119,Island of San Giorgio,Dorsoduro,45.428024,12.344211,"<iframe src=""https://www.google.com/maps/embed?pb=!4v1750253217872!6m8!1m7!1sH8i3nhuLZ2kmQv-yyUgmvQ!2m2!1d45.44255157868555!2d12.32102953868646!3f45.158489315080956!4f-0.9877157406747727!5f0.7820865974627469"" width=""600"" height=""450"" style=""border:0;"" allowfullscreen="""" loading=""lazy"" referrerpolicy=""no-referrer-when-downgrade""></iframe>",0,10,0,0,2,7.142857143,0.00003055518776,9.998217108,0,1.233333333,0.4111111111,0.432790643,4.638160123
120,Island of Inceneritore,Dorsoduro,45.426843,12.309497,"<iframe src=""https://www.google.com/maps/embed?pb=!4v1750253217872!6m8!1m7!1sH8i3nhuLZ2kmQv-yyUgmvQ!2m2!1d45.44255157868555!2d12.32102953868646!3f45.158489315080956!4f-0.9877157406747727!5f0.7820865974627469"" width=""600"" height=""450"" style=""border:0;"" allowfullscreen="""" loading=""lazy"" referrerpolicy=""no-referrer-when-downgrade""></iframe>",0,10,0,0,0,10,0,10,0,0,0,0.9331084556,10
121,Island of Stazione Marittima,San Croce,45.437706,12.310575,"<iframe src=""https://www.google.com/maps/embed?pb=!4v1750253217872!6m8!1m7!1sH8i3nhuLZ2kmQv-yyUgmvQ!2m2!1d45.44255157868555!2d12.32102953868646!3f45.158489315080956!4f-0.9877157406747727!5f0.7820865974627469"" width=""600"" height=""450"" style=""border:0;"" allowfullscreen="""" loading=""lazy"" referrerpolicy=""no-referrer-when-downgrade""></iframe>",0,10,0,0,0,10,0.00004437634881,9.997410644,0,4.033333333,1.344444444,0.02516885209,0.2697312616
122,Island of Tronchetto,San Croce,45.441524,12.30642,"<iframe src=""https://www.google.com/maps/embed?pb=!4v1750253217872!6m8!1m7!1sH8i3nhuLZ2kmQv-yyUgmvQ!2m2!1d45.44255157868555!2d12.32102953868646!3f45.158489315080956!4f-0.9877157406747727!5f0.7820865974627469"" width=""600"" height=""450"" style=""border:0;"" allowfullscreen="""" loading=""lazy"" referrerpolicy=""no-referrer-when-downgrade""></iframe>",0,10,0,0,0,10,0,10,0,1.193548387,0.3978494624,0.006653336682,0.07130292992
123,Island of San Giobbe,Cannaregio,45.44417,12.319895,"<iframe src=""https://www.google.com/maps/embed?pb=!4v1750253217872!6m8!1m7!1sH8i3nhuLZ2kmQv-yyUgmvQ!2m2!1d45.44255157868555!2d12.32102953868646!3f45.158489315080956!4f-0.9877157406747727!5f0.7820865974627469"" width=""600"" height=""450"" style=""border:0;"" allowfullscreen="""" loading=""lazy"" referrerpolicy=""no-referrer-when-downgrade""></iframe>",3762500,6.42394766,0,0,0.1180257511,9.831391784,0.01324621174,9.227084862,2.857142857,7.3,2.433333333,0.4286464038,4.59374686
124,Island of Diporto Velico,Castello,45.430408,12.364978,"<iframe src=""https://www.google.com/maps/embed?pb=!4v1750253217872!6m8!1m7!1sH8i3nhuLZ2kmQv-yyUgmvQ!2m2!1d45.44255157868555!2d12.32102953868646!3f45.158489315080956!4f-0.9877157406747727!5f0.7820865974627469"" width=""600"" height=""450"" style=""border:0;"" allowfullscreen="""" loading=""lazy"" referrerpolicy=""no-referrer-when-downgrade""></iframe>",0,10,0.5,0.01103752759,7,0,0,10,0,0,0,0,0
125,Island of Darsena San Giorgio,Dorsoduro,45.429935,12.344805,"<iframe src=""https://www.google.com/maps/embed?pb=!4v1750253217872!6m8!1m7!1sH8i3nhuLZ2kmQv-yyUgmvQ!2m2!1d45.44255157868555!2d12.32102953868646!3f45.158489315080956!4f-0.9877157406747727!5f0.7820865974627469"" width=""600"" height=""450"" style=""border:0;"" allowfullscreen="""" loading=""lazy"" referrerpolicy=""no-referrer-when-downgrade""></iframe>",0,10,0,0,0,10,0.001962708538,9.885476152,0,0,0,0,0
126,Island of Scorzeri,Giudecca,45.424181,12.3267052,"<iframe src=""https://www.google.com/maps/embed?pb=!4v1750253217872!6m8!1m7!1sH8i3nhuLZ2kmQv-yyUgmvQ!2m2!1d45.44255157868555!2d12.32102953868646!3f45.158489315080956!4f-0.9877157406747727!5f0.7820865974627469"" width=""600"" height=""450"" style=""border:0;"" allowfullscreen="""" loading=""lazy"" referrerpolicy=""no-referrer-when-downgrade""></iframe>",360000,9.957421767,0,0,0,10,0.1713798978,0,0,0,0,0,0
,,,,,,,,,,,,,,,,,,
,,,,,,,,,,,,,,0.7130393122,,,,